NUSAT-1 (FRESCO)        
1 41557U 16033B   22141.18603706  .00019505  00000+0  59249-3 0  9997
2 41557  97.3867 238.8522 0012732 115.5357 332.2440 15.34028713333209
BEESAT-4                
1 41619U 16040W   22140.59498249  .00022548  00000+0  76858-3 0  9998
2 41619  97.2187 191.9794 0009328 204.8302 155.2491 15.30336002316468
CAS-2T & KS-1Q          
1 41847U 16066G   22140.45135509  .00000725  00000+0  12009-3 0  9992
2 41847  98.5523 205.1466 0362864 293.7210  62.6305 14.38548029290327
NAYIF-1 (EO-88)         
1 42017U 17008BX  22140.45398084  .00025065  00000+0  76896-3 0  9996
2 42017  97.2701 206.9888 0004265   3.3271 356.8000 15.33733081292780
ZHUHAI-1 02 (CAS-4B)    
1 42759U 17034B   22141.09160374  .00004275  00000+0  25943-3 0  9995
2 42759  43.0159 123.4962 0007312 118.4359 327.3882 15.11691635272217
ZHUHAI-1 01 (CAS-4A)    
1 42761U 17034D   22141.06183690  .00004504  00000+0  27191-3 0  9993
2 42761  43.0155 122.4659 0007771 119.4694 320.1931 15.11785167272210
MAX VALIER SAT          
1 42778U 17036P   22141.12479303  .00016051  00000+0  61487-3 0  9995
2 42778  97.2074 183.1694 0012605  69.4159 290.8431 15.26536258272730
RADFXSAT (FOX-1B)       
1 43017U 17073E   22140.27111871  .00005106  00000+0  38950-3 0  9999
2 43017  97.6774  35.6122 0247645 280.2156  77.1216 14.81238957242941
FOX-1D (AO-92)          
1 43137U 18004AC  22141.20060842  .00018861  00000+0  67322-3 0  9999
2 43137  97.3689 216.6112 0009331 100.3711 259.8581 15.28870975242176
DIWATA-2B               
1 43678U 18084H   22141.08961220  .00001393  00000+0  14266-3 0  9994
2 43678  97.9660 274.0421 0010464  23.3664 336.8003 14.92123521193776
ES'HAIL 2               
1 43700U 18090A   22139.64299047  .00000142  00000+0  00000+0 0  9995
2 43700   0.0168 303.3533 0002921 147.1094  44.1172  1.00273657 12745
FOX-1CLIFF (AO-95)      
1 43770U 18099N   22140.43816988  .00004006  00000+0  35883-3 0  9993
2 43770  97.6202 207.5148 0014283  14.9875 345.1767 14.96291850188823
ITASAT 1                
1 43786U 18099AE  22140.50120499  .00003464  00000+0  30959-3 0  9999
2 43786  97.6235 208.4803 0014810   7.3209 352.8227 14.96460994188875
JY1SAT (JO-97)          
1 43803U 18099AX  22140.46111720  .00005159  00000+0  45321-3 0  9993
2 43803  97.6199 208.1894 0014440   7.9780 352.1669 14.96919942188886
UWE-4                   
1 43880U 18111E   22140.68139807  .00006116  00000+0  52201-3 0  9992
2 43880  97.6689  47.4759 0013474  60.1717 300.0843 14.97987984183542
NEXUS (FO-99)           
1 43937U 19003F   22141.09954706  .00019759  00000+0  67741-3 0  9997
2 43937  97.1324 175.5239 0019160 248.3471 111.5730 15.30036403185795
PSAT2 (NO-104)          
1 44354U 19036R   22139.97840625  .00095341 -41419-5  92008-3 0  9996
2 44354  28.5264  15.2303 0244563  10.5359 350.0248 15.35677574160290
JAISAT-1                
1 44419U 19038F   22140.33962238  .00012869  00000+0  65368-3 0  9994
2 44419  97.6341 110.2493 0017970 224.3869 135.5924 15.16884440158792
DUCHIFAT-3              
1 44854U 19089C   22141.06404302  .00005910  00000+0  46101-3 0  9990
2 44854  36.9668 262.7003 0009037 355.1386 173.5975 15.00893118133814
CAS-6 (TO-108)          
1 44881U 19093C   22141.16110671  .00000892  00000+0  11989-3 0  9999
2 44881  97.8927 220.7614 0013613 275.6918  84.2766 14.81693846130730
RS-44 & BREEZE-KM R/B   
1 44909U 19096E   22141.06211238  .00000045  00000+0  13224-3 0  9997
2 44909  82.5225 248.4688 0217629  24.0640 337.0446 12.79713307112051
ORBITAL FACTORY 2 (OF-2)
1 45113U 19071C   22140.42150811  .00034665  00000+0  75038-3 0  9992
2 45113  51.6374 197.1605 0010504  60.9609 299.2429 15.44072758129047
HUSKYSAT-1 (HO-107)     
1 45119U 19071J   22140.86524064  .00030463  00000+0  67735-3 0  9998
2 45119  51.6373 194.8520 0010436  59.8237 300.3782 15.43343419129107
BY70-2                  
1 45857U 20042B   22141.24104043  .00011231  00000+0  15084-2 0  9992
2 45857  97.9550 218.3491 0011113 194.9068 165.1862 14.79430670101437
SALSAT                  
1 46495U 20068K   22140.36168596  .00004402  00000+0  31887-3 0  9996
2 46495  97.7290  81.6589 0017200  20.1042 340.0858 15.04384375 89960
BY70-3                  
1 46839U 20079N   22141.23080337  .00032961  00000+0  80257-3 0  9999
2 46839  97.1992 213.7013 0006970  81.2447 310.4134 15.40841410 86057
RADFXSAT-2 (AO-109)     
1 47311U 21002C   22141.19534121  .00016638  00000+0  67281-3 0  9997
2 47311  60.6849 104.8259 0012387 301.8348  58.1534 15.24844503 74315
UVSQ-SAT                
1 47438U 21006AB  22140.41764583  .00009715  00000+0  51735-3 0  9997
2 47438  97.4383 200.0069 0012192  20.7296 339.4428 15.15358631 73034
DIY-1 (ARDUIQUBE)       
1 47963U 21022AH  22140.24020637  .00026206  00000+0  14958-2 0  9993
2 47963  97.5339  41.9412 0015432 223.9558 136.0446 15.12614950 62687
XW-3 (CAS-9)            
1 50466U 21131B   22141.18395559  .00000482  00000+0  17240-3 0  9994
2 50466  98.5807 218.4501 0003913 214.8618 145.2314 14.38488811 20993
